{"type": "FeatureCollection", "features": [ {"type": "Feature", "properties": {"norad_id": 30702, "name": "FENGYUN 1C DEB", "group": "fengyun-1c-debris", "lat": -3.8533439136029273, "lon": -176.67615684317997, "alt_km": 913.7327468504218, "timestamp": "2025-12-09T23:33:24.132822+00:00", "meta": {"OBJECT_NAME": "FENGYUN 1C DEB", "OBJECT_ID": "1999-025ARL", "EPOCH": "2025-12-09T07:21:39.319776", "MEAN_MOTION": 14.03580733, "ECCENTRICITY": 0.0068465, "INCLINATION": 98.7699, "RA_OF_ASC_NODE": 3.2688, "ARG_OF_PERICENTER": 311.5908, "MEAN_ANOMALY": 64.9011, "EPHEMERIS_TYPE": 0, "CLASSIFICATION_TYPE": "U", "NORAD_CAT_ID": 30702, "ELEMENT_SET_NO": 999, "REV_AT_EPOCH": 96114, "BSTAR": 0.001145, "MEAN_MOTION_DOT": 1.791e-05, "MEAN_MOTION_DDOT": 0}, "tle": {"line1": "1 30702U 99025ARL 25343.30670509  .00001791  00000+0  11450-2 0  9994", "line2": "2 30702  98.7699   3.2688 0068465 311.5908  64.9011 14.03580733961141"}}, "geometry": {"type": "Point", "coordinates": [-176.67615684317997, -3.8533439136029273]}}, {"type": "Feature", "properties": {"norad_id": 30703, "name": "FENGYUN 1C DEB", "group": "fengyun-1c-debris", "lat": 49.326615424113704, "lon": 159.72262828016562, "alt_km": 906.8650095395706, "timestamp": "2025-12-09T23:33:24.132833+00:00", "meta": {"OBJECT_NAME": "FENGYUN 1C DEB", "OBJECT_ID": "1999-025ARM", "EPOCH": "2025-12-09T11:42:09.722592", "MEAN_MOTION": 14.19299158, "ECCENTRICITY": 0.0117888, "INCLINATION": 99.1419, "RA_OF_ASC_NODE": 328.4128, "ARG_OF_PERICENTER": 301.32, "MEAN_ANOMALY": 186.3927, "EPHEMERIS_TYPE": 0, "CLASSIFICATION_TYPE": "U", "NORAD_CAT_ID": 30703, "ELEMENT_SET_NO": 999, "REV_AT_EPOCH": 96494, "BSTAR": 0.0021336127, "MEAN_MOTION_DOT": 4.754e-05, "MEAN_MOTION_DDOT": 0}, "tle": {"line1": "1 30703U 99025ARM 25343.48761253  .00004754  00000+0  21336-2 0  9997", "line2": "2 30703  99.1419 328.4128 0117888 301.3200 186.3927 14.19299158964945"}}, "geometry": {"type": "Point", "coordinates": [159.72262828016562, 49.326615424113704]}}, {"type": "Feature", "properties": {"norad_id": 30704, "name": "FENGYUN 1C DEB", "group": "fengyun-1c-debris", "lat": -63.26022495427685, "lon": 144.73684106397675, "alt_km": 937.1797529716887, "timestamp": "2025-12-09T23:33:24.132843+00:00", "meta": {"OBJECT_NAME": "FENGYUN 1C DEB", "OBJECT_ID": "1999-025ARN", "EPOCH": "2025-12-09T11:08:20.572800", "MEAN_MOTION": 14.02041688, "ECCENTRICITY": 0.00816854, "INCLINATION": 98.8715, "RA_OF_ASC_NODE": 342.2927, "ARG_OF_PERICENTER": 108.9017, "MEAN_ANOMALY": 45.0067, "EPHEMERIS_TYPE": 0, "CLASSIFICATION_TYPE": "U", "NORAD_CAT_ID": 30704, "ELEMENT_SET_NO": 999, "REV_AT_EPOCH": 96065, "BSTAR": 0.0006290131, "MEAN_MOTION_DOT": 9.46e-06, "MEAN_MOTION_DDOT": 0}, "tle": {"line1": "1 30704U 99025ARN 25343.46412700  .00000946  00000+0  62901-3 0  9999", "line2": "2 30704  98.8715 342.2927 0081685 108.9017  45.0067 14.02041688960659"}}, "geometry": {"type": "Point", "coordinates": [144.73684106397675, -63.26022495427685]}}, {"type": "Feature", "properties": {"norad_id": 30705, "name": "FENGYUN 1C DEB", "group": "fengyun-1c-debris", "lat": 36.1069860086281, "lon": -83.57225711419586, "alt_km": 1076.7551427878689, "timestamp": "2025-12-09T23:33:24.132854+00:00", "meta": {"OBJECT_NAME": "FENGYUN 1C DEB", "OBJECT_ID": "1999-025ARP", "EPOCH": "2025-12-09T12:29:54.047616", "MEAN_MOTION": 13.8129493, "ECCENTRICITY": 0.01994575, "INCLINATION": 102.1804, "RA_OF_ASC_NODE": 86.7709, "ARG_OF_PERICENTER": 289.777, "MEAN_ANOMALY": 84.2234, "EPHEMERIS_TYPE": 0, "CLASSIFICATION_TYPE": "U", "NORAD_CAT_ID": 30705, "ELEMENT_SET_NO": 999, "REV_AT_EPOCH": 93965, "BSTAR": 0.0035181472, "MEAN_MOTION_DOT": 4.278e-05, "MEAN_MOTION_DDOT": 0}, "tle": {"line1": "1 30705U 99025ARP 25343.52076444  .00004278  00000+0  35181-2 0  9999", "line2": "2 30705 102.1804  86.7709 0199457 289.7770  84.2234 13.81294930939650"}}, "geometry": {"type": "Point", "coordinates": [-83.57225711419586, 36.1069860086281]}}, {"type": "Feature", "properties": {"norad_id": 30706, "name": "FENGYUN 1C DEB", "group": "fengyun-1c-debris", "lat": -4.346493514353709, "lon": -120.81281444471095, "alt_km": 821.7913508524616, "timestamp": "2025-12-09T23:33:24.132864+00:00", "meta": {"OBJECT_NAME": "FENGYUN 1C DEB", "OBJECT_ID": "1999-025ARQ", "EPOCH": "2025-12-08T15:35:27.222432", "MEAN_MOTION": 14.26401079, "ECCENTRICITY": 0.00262807, "INCLINATION": 99.0647, "RA_OF_ASC_NODE": 237.1139, "ARG_OF_PERICENTER": 140.1943, "MEAN_ANOMALY": 220.117, "EPHEMERIS_TYPE": 0, "CLASSIFICATION_TYPE": "U", "NORAD_CAT_ID": 30706, "ELEMENT_SET_NO": 999, "REV_AT_EPOCH": 97569, "BSTAR": 0.0014795014, "MEAN_MOTION_DOT": 3.525e-05, "MEAN_MOTION_DDOT": 0}, "tle": {"line1": "1 30706U 99025ARQ 25342.64962063  .00003525  00000+0  14795-2 0  9995", "line2": "2 30706  99.0647 237.1139 0026280 140.1943 220.1170 14.26401079975692"}}, "geometry": {"type": "Point", "coordinates": [-120.81281444471095, -4.346493514353709]}}, {"type": "Feature", "properties": {"norad_id": 30707, "name": "FENGYUN 1C DEB", "group": "fengyun-1c-debris", "lat": -43.893592009565324, "lon": -151.03276057753664, "alt_km": 826.3623417594508, "timestamp": "2025-12-09T23:33:24.132874+00:00", "meta": {"OBJECT_NAME": "FENGYUN 1C DEB", "OBJECT_ID": "1999-025ARR", "EPOCH": "2025-12-09T02:27:06.702624", "MEAN_MOTION": 14.26645866, "ECCENTRICITY": 0.00280284, "INCLINATION": 99.4128, "RA_OF_ASC_NODE": 37.206, "ARG_OF_PERICENTER": 80.3745, "MEAN_ANOMALY": 310.1343, "EPHEMERIS_TYPE": 0, "CLASSIFICATION_TYPE": "U", "NORAD_CAT_ID": 30707, "ELEMENT_SET_NO": 999, "REV_AT_EPOCH": 96751, "BSTAR": 0.0017819477, "MEAN_MOTION_DOT": 4.276e-05, "MEAN_MOTION_DDOT": 0}, "tle": {"line1": "1 30707U 99025ARR 25343.10216091  .00004276  00000+0  17819-2 0  9995", "line2": "2 30707  99.4128  37.2060 0028028  80.3745 310.1343 14.26645866967518"}}, "geometry": {"type": "Point", "coordinates": [-151.03276057753664, -43.893592009565324]}}, {"type": "Feature", "properties": {"norad_id": 30708, "name": "FENGYUN 1C DEB", "group": "fengyun-1c-debris", "lat": 69.58071931505948, "lon": -26.55552296931068, "alt_km": 848.9080299089237, "timestamp": "2025-12-09T23:33:24.132884+00:00", "meta": {"OBJECT_NAME": "FENGYUN 1C DEB", "OBJECT_ID": "1999-025ARS", "EPOCH": "2025-12-08T23:42:33.607008", "MEAN_MOTION": 14.12175461, "ECCENTRICITY": 0.0007861, "INCLINATION": 98.6907, "RA_OF_ASC_NODE": 356.7397, "ARG_OF_PERICENTER": 205.6425, "MEAN_ANOMALY": 217.2372, "EPHEMERIS_TYPE": 0, "CLASSIFICATION_TYPE": "U", "NORAD_CAT_ID": 30708, "ELEMENT_SET_NO": 999, "REV_AT_EPOCH": 96783, "BSTAR": 0.00023352, "MEAN_MOTION_DOT": 3.86e-06, "MEAN_MOTION_DDOT": 0}, "tle": {"line1": "1 30708U 99025ARS 25342.98788897  .00000386  00000+0  23352-3 0  9997", "line2": "2 30708  98.6907 356.7397 0007861 205.6425 217.2372 14.12175461967834"}}, "geometry": {"type": "Point", "coordinates": [-26.55552296931068, 69.58071931505948]}}, {"type": "Feature", "properties": {"norad_id": 30709, "name": "FENGYUN 1C DEB", "group": "fengyun-1c-debris", "lat": 46.793339333363235, "lon": -48.01644498282241, "alt_km": 867.6749302673607, "timestamp": "2025-12-09T23:33:24.132894+00:00", "meta": {"OBJECT_NAME": "FENGYUN 1C DEB", "OBJECT_ID": "1999-025ART", "EPOCH": "2025-12-09T09:46:43.795776", "MEAN_MOTION": 14.1742131, "ECCENTRICITY": 0.00828182, "INCLINATION": 99.1448, "RA_OF_ASC_NODE": 321.2676, "ARG_OF_PERICENTER": 279.6662, "MEAN_ANOMALY": 79.5164, "EPHEMERIS_TYPE": 0, "CLASSIFICATION_TYPE": "U", "NORAD_CAT_ID": 30709, "ELEMENT_SET_NO": 999, "REV_AT_EPOCH": 95949, "BSTAR": 0.004018237, "MEAN_MOTION_DOT": 8.38e-05, "MEAN_MOTION_DDOT": 0}, "tle": {"line1": "1 30709U 99025ART 25343.40745134  .00008380  00000+0  40182-2 0  9994", "line2": "2 30709  99.1448 321.2676 0082818 279.6662  79.5164 14.17421310959490"}}, "geometry": {"type": "Point", "coordinates": [-48.01644498282241, 46.793339333363235]}}, {"type": "Feature", "properties": {"norad_id": 30710, "name": "FENGYUN 1C DEB", "group": "fengyun-1c-debris", "lat": 24.954274167329093, "lon": 58.19657709219516, "alt_km": 840.168701847264, "timestamp": "2025-12-09T23:33:24.132905+00:00", "meta": {"OBJECT_NAME": "FENGYUN 1C DEB", "OBJECT_ID": "1999-025ARU", "EPOCH": "2025-12-08T11:29:40.437600", "MEAN_MOTION": 13.9410372, "ECCENTRICITY": 0.02229863, "INCLINATION": 102.7458, "RA_OF_ASC_NODE": 230.0846, "ARG_OF_PERICENTER": 93.3807, "MEAN_ANOMALY": 80.9567, "EPHEMERIS_TYPE": 0, "CLASSIFICATION_TYPE": "U", "NORAD_CAT_ID": 30710, "ELEMENT_SET_NO": 999, "REV_AT_EPOCH": 94729, "BSTAR": 0.002941917, "MEAN_MOTION_DOT": 4.722e-05, "MEAN_MOTION_DDOT": 0}, "tle": {"line1": "1 30710U 99025ARU 25342.47894025  .00004722  00000+0  29419-2 0  9992", "line2": "2 30710 102.7458 230.0846 0222986  93.3807  80.9567 13.94103720947298"}}, "geometry": {"type": "Point", "coordinates": [58.19657709219516, 24.954274167329093]}}, {"type": "Feature", "properties": {"norad_id": 30714, "name": "FENGYUN 1C DEB", "group": "fengyun-1c-debris", "lat": 48.12788617440032, "lon": 22.58921002341362, "alt_km": 900.9177321171755, "timestamp": "2025-12-09T23:33:24.132915+00:00", "meta": {"OBJECT_NAME": "FENGYUN 1C DEB", "OBJECT_ID": "1999-025ARY", "EPOCH": "2025-12-09T09:43:51.450240", "MEAN_MOTION": 14.03284649, "ECCENTRICITY": 0.00667125, "INCLINATION": 98.8377, "RA_OF_ASC_NODE": 32.0249, "ARG_OF_PERICENTER": 292.1115, "MEAN_ANOMALY": 87.5763, "EPHEMERIS_TYPE": 0, "CLASSIFICATION_TYPE": "U", "NORAD_CAT_ID": 30714, "ELEMENT_SET_NO": 999, "REV_AT_EPOCH": 95946, "BSTAR": 0.00096717973, "MEAN_MOTION_DOT": 1.496e-05, "MEAN_MOTION_DDOT": 0}, "tle": {"line1": "1 30714U 99025ARY 25343.40545660  .00001496  00000+0  96718-3 0  9990", "line2": "2 30714  98.8377  32.0249 0066712 292.1115  87.5763 14.03284649959462"}}, "geometry": {"type": "Point", "coordinates": [22.58921002341362, 48.12788617440032]}}]}